NORAD_CAT_ID,OBJECT_NAME,OBJECT_TYPE,EPOCH,MEAN_MOTION,ECCENTRICITY,INCLINATION,RA_OF_ASC_NODE,ARG_OF_PERICENTER,MEAN_ANOMALY,BSTAR,MEAN_MOTION_DOT,MEAN_MOTION_DDOT,TLE_LINE0,TLE_LINE1,TLE_LINE2,SEMIMAJOR_AXIS,PERIOD,APOGEE,PERIGEE,DECAYED
50832.0,STARLINK-3328,PAYLOAD,2024-02-14 12:11:33,15.08848164,0.0001207,53.2201,324.823,103.6033,256.5094,-6.808e-05,-1.371e-05,0.0,0 STARLINK-3328,1 50832U 22001AF  24045.50802965 -.00001371  00000-0 -68080-4 0  9993,2 50832  53.2201 324.8230 0001207 103.6033 256.5094 15.08848164117668,6917.855,95.437,540.555,538.885,0.0
50832.0,STARLINK-3328,PAYLOAD,2024-02-14 21:43:53,15.08841243,0.0001393,53.2193,323.0387,93.6657,266.4495,3.1606e-05,2.15e-06,0.0,0 STARLINK-3328,1 50832U 22001AF  24045.90547813  .00000215  00000-0  31606-4 0  9993,2 50832  53.2193 323.0387 0001393  93.6657 266.4495 15.08841243116472,6917.877,95.437,540.705,538.778,0.0
50832.0,STARLINK-3328,PAYLOAD,2024-02-15 04:05:25,15.08848412,0.0001632,53.2197,321.8457,98.2177,261.9001,0.0001081,1.433e-05,0.0,0 STARLINK-3328,1 50832U 22001AF  24046.17043128  .00001433  00000-0  10810-3 0  9999,2 50832  53.2197 321.8457 0001632  98.2177 261.9001 15.08848412116517,6917.855,95.437,540.849,538.591,0.0
50832.0,STARLINK-3328,PAYLOAD,2024-02-15 18:23:54,15.08829536,0.0001267,53.2177,319.1729,95.2254,264.8883,2.6512e-05,1.34e-06,0.0,0 STARLINK-3328,1 50832U 22001AF  24046.76660732  .00000134  00000-0  26512-4 0  9994,2 50832  53.2177 319.1729 0001267  95.2254 264.8883 15.08829536117858,6917.912,95.438,540.654,538.901,0.0
50832.0,STARLINK-3328,PAYLOAD,2024-02-15 21:34:41,15.08831186,0.0001262,53.2176,318.5797,100.1152,259.9983,3.2592e-05,2.31e-06,0.0,0 STARLINK-3328,1 50832U 22001AF  24046.89908663  .00000231  00000-0  32592-4 0  9999,2 50832  53.2176 318.5797 0001262 100.1152 259.9983 15.08831186116627,6917.907,95.438,540.645,538.899,0.0
50832.0,STARLINK-3328,PAYLOAD,2024-02-16 00:45:26,15.08843779,0.0001397,53.2183,317.9827,100.4573,259.6577,-4.8815e-05,-1.065e-05,0.0,0 STARLINK-3328,1 50832U 22001AF  24047.03156180 -.00001065  00000-0 -48815-4 0  9998,2 50832  53.2183 317.9827 0001397 100.4573 259.6577 15.08843779117898,6917.869,95.437,540.7,538.767,0.0
50832.0,STARLINK-3328,PAYLOAD,2024-02-16 18:14:41,15.0883469,0.0001326,53.2173,314.7122,98.1851,261.9291,5.0366e-05,5.14e-06,0.0,0 STARLINK-3328,1 50832U 22001AF  24047.76020529  .00000514  00000-0  50366-4 0  9995,2 50832  53.2173 314.7122 0001326  98.1851 261.9291 15.08834690118009,6917.897,95.438,540.679,538.844,0.0
50832.0,STARLINK-3328,PAYLOAD,2024-02-16 21:25:28,15.08835184,0.0001306,53.2173,314.1177,97.1664,262.9477,6.1454e-05,6.9e-06,0.0,0 STARLINK-3328,1 50832U 22001AF  24047.89268565  .00000690  00000-0  61454-4 0  9998,2 50832  53.2173 314.1177 0001306  97.1664 262.9477 15.08835184116770,6917.895,95.438,540.664,538.857,0.0
50832.0,STARLINK-3328,PAYLOAD,2024-02-17 10:08:32,15.08843264,0.0001228,53.2176,311.7419,99.2579,260.8552,9.7911e-05,1.271e-05,0.0,0 STARLINK-3328,1 50832U 22001AF  24048.42260228  .00001271  00000-0  97911-4 0  9999,2 50832  53.2176 311.7419 0001228  99.2579 260.8552 15.08843264116854,6917.87,95.437,540.585,538.886,0.0
50832.0,STARLINK-3328,PAYLOAD,2024-02-17 22:51:38,15.08839791,0.000113,53.2177,309.3628,90.6841,269.4281,0.0001272,1.737e-05,0.0,0 STARLINK-3328,1 50832U 22001AF  24048.95252516  .00001737  00000-0  12720-3 0  9999,2 50832  53.2177 309.3628 0001130  90.6841 269.4281 15.08839791116932,6917.881,95.438,540.528,538.964,0.0
50832.0,STARLINK-3328,PAYLOAD,2024-02-18 00:27:01,15.08841398,0.0001113,53.2177,309.0657,93.636,266.476,0.00014977,2.097e-05,0.0,0 STARLINK-3328,1 50832U 22001AF  24049.01876449  .00002097  00000-0  14977-3 0  9990,2 50832  53.2177 309.0657 0001113  93.6360 266.4760 15.08841398118196,6917.876,95.437,540.511,538.971,0.0
50832.0,STARLINK-3328,PAYLOAD,2024-02-18 09:59:19,15.08842624,0.0001147,53.2174,307.281,91.3862,268.7261,7.2189e-05,8.61e-06,0.0,0 STARLINK-3328,1 50832U 22001AF  24049.41620256  .00000861  00000-0  72189-4 0  9994,2 50832  53.2174 307.2810 0001147  91.3862 268.7261 15.08842624117006,6917.872,95.437,540.531,538.944,0.0
50832.0,STARLINK-3328,PAYLOAD,2024-02-18 22:42:25,15.08843157,0.0001274,53.2172,304.9024,90.9035,269.2103,6.9024e-05,8.11e-06,0.0,0 STARLINK-3328,1 50832U 22001AF  24049.94612288  .00000811  00000-0  69024-4 0  9997,2 50832  53.2172 304.9024 0001274  90.9035 269.2103 15.08843157117084,6917.871,95.437,540.617,538.854,0.0
50832.0,STARLINK-3328,PAYLOAD,2024-02-19 01:53:10,15.08848854,0.0001373,53.2175,304.3073,92.4639,267.651,7.102e-05,8.43e-06,0.0,0 STARLINK-3328,1 50832U 22001AF  24050.07859945  .00000843  00000-0  71020-4 0  9990,2 50832  53.2175 304.3073 0001373  92.4639 267.6510 15.08848854118356,6917.853,95.437,540.668,538.769,0.0
50832.0,STARLINK-3328,PAYLOAD,2024-02-19 09:50:07,15.08839798,0.0001518,53.2174,302.818,88.1408,271.9758,-2.8094e-05,-7.35e-06,0.0,0 STARLINK-3328,1 50832U 22001AF  24050.40980426 -.00000735  00000-0 -28094-4 0  9991,2 50832  53.2174 302.8180 0001518  88.1408 271.9758 15.08839798118409,6917.881,95.438,540.796,538.696,0.0
50832.0,STARLINK-3328,PAYLOAD,2024-02-19 22:33:12,15.08835727,0.0001307,53.217,300.4413,91.8703,268.2439,-3.5289e-05,-8.49e-06,0.0,0 STARLINK-3328,1 50832U 22001AF  24050.93972666 -.00000849  00000-0 -35289-4 0  9996,2 50832  53.2170 300.4413 0001307  91.8703 268.2439 15.08835727117236,6917.893,95.438,540.663,538.854,0.0
50832.0,STARLINK-3328,PAYLOAD,2024-02-20 09:40:54,15.08839758,0.0001245,53.2173,298.3592,85.458,274.6555,4.614e-05,4.47e-06,0.0,0 STARLINK-3328,1 50832U 22001AF  24051.40340849  .00000447  00000-0  46140-4 0  9991,2 50832  53.2173 298.3592 0001245  85.4580 274.6555 15.08839758117301,6917.881,95.438,540.607,538.885,0.0
50832.0,STARLINK-3328,PAYLOAD,2024-02-20 22:23:59,15.0884649,0.0001245,53.2168,295.9792,88.6308,271.4827,3.1133e-05,2.08e-06,0.0,0 STARLINK-3328,1 50832U 22001AF  24051.93332495  .00000208  00000-0  31133-4 0  9998,2 50832  53.2168 295.9792 0001245  88.6308 271.4827 15.08846490117389,6917.861,95.437,540.587,538.864,0.0
50832.0,STARLINK-3328,PAYLOAD,2024-02-20 23:59:22,15.08847538,0.0001244,53.2168,295.6819,88.5396,271.5738,4.0554e-05,3.58e-06,0.0,0 STARLINK-3328,1 50832U 22001AF  24051.99956391  .00000358  00000-0  40554-4 0  9994,2 50832  53.2168 295.6819 0001244  88.5396 271.5738 15.08847538118647,6917.857,95.437,540.583,538.862,0.0
50832.0,STARLINK-3328,PAYLOAD,2024-02-21 09:31:40,15.08848464,0.0001232,53.2167,293.8976,96.8133,263.3,5.1641e-05,5.34e-06,0.0,0 STARLINK-3328,1 50832U 22001AF  24052.39700138  .00000534  00000-0  51641-4 0  9990,2 50832  53.2167 293.8976 0001232  96.8133 263.3000 15.08848464117456,6917.855,95.437,540.572,538.867,0.0
50832.0,STARLINK-3328,PAYLOAD,2024-02-21 22:14:46,15.08845136,0.0001312,53.217,291.5198,87.4937,272.6205,0.00013329,1.834e-05,0.0,0 STARLINK-3328,1 50832U 22001AF  24052.92692239  .00001834  00000-0  13329-3 0  9995,2 50832  53.2170 291.5198 0001312  87.4937 272.6205 15.08845136117530,6917.865,95.437,540.637,538.822,0.0
50832.0,STARLINK-3328,PAYLOAD,2024-02-22 01:25:32,15.08848023,0.0001341,53.2171,290.9228,105.2852,254.8289,0.000192,2.77e-05,0.0,0 STARLINK-3328,1 50832U 22001AF  24053.05939840  .00002770  00000-0  19200-3 0  9996,2 50832  53.2171 290.9228 0001341 105.2852 254.8289 15.08848023118808,6917.856,95.437,540.649,538.793,0.0
50832.0,STARLINK-3328,PAYLOAD,2024-02-22 18:54:47,15.08838662,0.0001248,53.2172,287.6533,89.6441,270.4694,5.9427e-05,6.58e-06,0.0,0 STARLINK-3328,1 50832U 22001AF  24053.78804790  .00000658  00000-0  59427-4 0  9990,2 50832  53.2172 287.6533 0001248  89.6441 270.4694 15.08838662118910,6917.884,95.438,540.613,538.886,0.0
50832.0,STARLINK-3328,PAYLOAD,2024-02-22 22:05:33,15.08841145,0.000129,53.217,287.0579,87.7271,272.3868,8.0015e-05,9.86e-06,0.0,0 STARLINK-3328,1 50832U 22001AF  24053.92052579  .00000986  00000-0  80015-4 0  9997,2 50832  53.2170 287.0579 0001290  87.7271 272.3868 15.08841145117686,6917.877,95.437,540.634,538.849,0.0
50832.0,STARLINK-3328,PAYLOAD,2024-02-23 21:56:20,15.08843537,0.0001116,53.2166,282.5956,93.3062,266.8058,8.0112e-05,9.88e-06,0.0,0 STARLINK-3328,1 50832U 22001AF  24054.91412285  .00000988  00000-0  80112-4 0  9991,2 50832  53.2166 282.5956 0001116  93.3062 266.8058 15.08843537119080,6917.87,95.437,540.507,538.963,0.0
50832.0,STARLINK-3328,PAYLOAD,2024-02-24 01:07:06,15.08845297,0.0001131,53.2164,282.0007,104.3817,255.7301,5.3894e-05,5.7e-06,0.0,0 STARLINK-3328,1 50832U 22001AF  24055.04660176  .00000570  00000-0  53894-4 0  9994,2 50832  53.2164 282.0007 0001131 104.3817 255.7301 15.08845297117854,6917.864,95.437,540.512,538.947,0.0
50832.0,STARLINK-3328,PAYLOAD,2024-02-24 21:47:08,15.08834046,0.0001276,53.2159,278.1346,85.8185,274.2953,4.2419e-05,3.87e-06,0.0,0 STARLINK-3328,1 50832U 22001AF  24055.90773312  .00000387  00000-0  42419-4 0  9993,2 50832  53.2159 278.1346 0001276  85.8185 274.2953 15.08834046117984,6917.899,95.438,540.646,538.881,0.0
50832.0,STARLINK-3328,PAYLOAD,2024-02-25 07:19:26,15.08838946,0.0001298,53.2161,276.3494,82.7906,277.3233,0.00010559,1.393e-05,0.0,0 STARLINK-3328,1 50832U 22001AF  24056.30516984  .00001393  00000-0  10559-3 0  9995,2 50832  53.2161 276.3494 0001298  82.7906 277.3233 15.08838946118048,6917.884,95.438,540.647,538.851,0.0
50832.0,STARLINK-3328,PAYLOAD,2024-02-25 20:02:31,15.08844765,0.0001283,53.216,273.9709,84.1858,275.928,0.0001178,1.588e-05,0.0,0 STARLINK-3328,1 50832U 22001AF  24056.83508598  .00001588  00000-0  11780-3 0  9998,2 50832  53.2160 273.9709 0001283  84.1858 275.9280 15.08844765119374,6917.866,95.437,540.618,538.843,0.0
50832.0,STARLINK-3328,PAYLOAD,2024-02-25 21:37:54,15.08846919,0.0001255,53.2163,273.6762,94.8874,265.2262,0.00015887,2.242e-05,0.0,0 STARLINK-3328,1 50832U 22001AF  24056.90132417  .00002242  00000-0  15887-3 0  9999,2 50832  53.2163 273.6762 0001255  94.8874 265.2262 15.08846919118136,6917.859,95.437,540.592,538.856,0.0
